start=new Date('2023-06-16T00:00:00.000Z').valueOf();
sats=[{"REF_FRAME":"TEME","TLE_LINE1":"1 53775U 22111C   23166.12586008  .00000380  00000-0  41980-4 0  9999","TIME_SYSTEM":"UTC","REV_AT_EPOCH":"4294","PERIAPSIS":"538.979","ARG_OF_PERICENTER":"97.5162","ELEMENT_SET_NO":"999","MEAN_ANOMALY":"262.5958","MEAN_ELEMENT_THEORY":"SGP4","FILE":"3933820","EPOCH":"2023-06-15T03:01:14.310912","LAUNCH_DATE":"2022-09-11","DECAY_DATE":null,"MEAN_MOTION_DDOT":"0.0000000000000","RCS_SIZE":"LARGE","NORAD_CAT_ID":"53775","COUNTRY_CODE":"US","MEAN_MOTION":"15.08836886","RA_OF_ASC_NODE":"77.0812","EPHEMERIS_TYPE":"0","TLE_LINE2":"2 53775  53.2171  77.0812 0001122  97.5162 262.5958 15.08836886 42948","SEMIMAJOR_AXIS":"6917.890","BSTAR":"0.00004198000000","OBJECT_TYPE":"PAYLOAD","SITE":"AFETR","CENTER_NAME":"EARTH","APOAPSIS":"540.531","OBJECT_NAME":"STARLINK-4722","ECCENTRICITY":"0.00011220","CLASSIFICATION_TYPE":"U","GP_ID":"233989045","OBJECT_ID":"2022-111C","MEAN_MOTION_DOT":"0.00000380","INCLINATION":"53.2171","PERIOD":"95.438"},{"PERIOD":"95.438","INCLINATION":"53.2174","MEAN_MOTION_DOT":"-0.00000132","OBJECT_ID":"2022-111D","GP_ID":"234022264","CLASSIFICATION_TYPE":"U","ECCENTRICITY":"0.00013400","OBJECT_NAME":"STARLINK-4708","APOAPSIS":"540.686","CENTER_NAME":"EARTH","SITE":"AFETR","BSTAR":"0.00000977770000","OBJECT_TYPE":"PAYLOAD","SEMIMAJOR_AXIS":"6917.894","EPHEMERIS_TYPE":"0","TLE_LINE2":"2 53776  53.2174  79.0607 0001340  89.5851 270.5295 15.08835404 43257","MEAN_MOTION":"15.08835404","RA_OF_ASC_NODE":"79.0607","COUNTRY_CODE":"US","NORAD_CAT_ID":"53776","MEAN_MOTION_DDOT":"0.0000000000000","RCS_SIZE":"LARGE","DECAY_DATE":null,"LAUNCH_DATE":"2022-09-11","FILE":"3934071","EPOCH":"2023-06-15T18:47:50.627904","MEAN_ANOMALY":"270.5295","MEAN_ELEMENT_THEORY":"SGP4","ARG_OF_PERICENTER":"89.5851","ELEMENT_SET_NO":"999","REV_AT_EPOCH":"4325","PERIAPSIS":"538.832","TIME_SYSTEM":"UTC","TLE_LINE1":"1 53776U 22111D   23166.78322486 -.00000132  00000-0  97777-5 0  9992","REF_FRAME":"TEME"},{"DECAY_DATE":null,"LAUNCH_DATE":"2022-09-11","EPOCH":"2023-06-14T20:29:05.167392","FILE":"3933820","MEAN_ELEMENT_THEORY":"SGP4","MEAN_ANOMALY":"261.7918","COUNTRY_CODE":"US","NORAD_CAT_ID":"53777","MEAN_MOTION_DDOT":"0.0000000000000","RCS_SIZE":"LARGE","TIME_SYSTEM":"UTC","TLE_LINE1":"1 53777U 22111E   23165.85353203 -.00000068  00000-0  13779-4 0  9998","REF_FRAME":"TEME","ARG_OF_PERICENTER":"98.3178","ELEMENT_SET_NO":"999","REV_AT_EPOCH":"4290","PERIAPSIS":"539.141","CLASSIFICATION_TYPE":"U","ECCENTRICITY":"0.00009120","OBJECT_NAME":"STARLINK-4664","PERIOD":"95.438","INCLINATION":"53.2173","MEAN_MOTION_DOT":"-0.00000068","OBJECT_ID":"2022-111E","GP_ID":"233988544","BSTAR":"0.00001377900000","OBJECT_TYPE":"PAYLOAD","SEMIMAJOR_AXIS":"6917.906","TLE_LINE2":"2 53777  53.2173  78.2261 0000912  98.3178 261.7918 15.08831467 42908","EPHEMERIS_TYPE":"0","MEAN_MOTION":"15.08831467","RA_OF_ASC_NODE":"78.2261","CENTER_NAME":"EARTH","APOAPSIS":"540.402","SITE":"AFETR"},{"APOAPSIS":"540.646","CENTER_NAME":"EARTH","SITE":"AFETR","BSTAR":"0.00000304670000","OBJECT_TYPE":"PAYLOAD","SEMIMAJOR_AXIS":"6917.884","TLE_LINE2":"2 53778  53.2170  78.8078 0001297  95.3326 264.7814 15.08838962 42979","EPHEMERIS_TYPE":"0","RA_OF_ASC_NODE":"78.8078","MEAN_MOTION":"15.08838962","PERIOD":"95.438","INCLINATION":"53.2170","MEAN_MOTION_DOT":"-0.00000239","OBJECT_ID":"2022-111F","GP_ID":"234020766","CLASSIFICATION_TYPE":"U","ECCENTRICITY":"0.00012970","OBJECT_NAME":"STARLINK-4709","ELEMENT_SET_NO":"999","ARG_OF_PERICENTER":"95.3326","PERIAPSIS":"538.851","REV_AT_EPOCH":"4297","TIME_SYSTEM":"UTC","TLE_LINE1":"1 53778U 22111F   23166.74173823 -.00000239  00000-0  30467-5 0  9990","REF_FRAME":"TEME","COUNTRY_CODE":"US","NORAD_CAT_ID":"53778","MEAN_MOTION_DDOT":"0.0000000000000","RCS_SIZE":"LARGE","LAUNCH_DATE":"2022-09-11","DECAY_DATE":null,"FILE":"3934071","EPOCH":"2023-06-15T17:48:06.183072","MEAN_ELEMENT_THEORY":"SGP4","MEAN_ANOMALY":"264.7814"},{"TLE_LINE1":"1 53779U 22111G   23166.11480102  .00000421  00000-0  44505-4 0  9992","TIME_SYSTEM":"UTC","REF_FRAME":"TEME","ARG_OF_PERICENTER":"86.8766","ELEMENT_SET_NO":"999","REV_AT_EPOCH":"4294","PERIAPSIS":"538.900","EPOCH":"2023-06-15T02:45:18.808128","FILE":"3933820","LAUNCH_DATE":"2022-09-11","DECAY_DATE":null,"MEAN_ELEMENT_THEORY":"SGP4","MEAN_ANOMALY":"273.2366","COUNTRY_CODE":"US","RCS_SIZE":"LARGE","MEAN_MOTION_DDOT":"0.0000000000000","NORAD_CAT_ID":"53779","SEMIMAJOR_AXIS":"6917.878","BSTAR":"0.00004450500000","OBJECT_TYPE":"PAYLOAD","MEAN_MOTION":"15.08840759","RA_OF_ASC_NODE":"77.0121","TLE_LINE2":"2 53779  53.2167  77.0121 0001218  86.8766 273.2366 15.08840759 42943","EPHEMERIS_TYPE":"0","SITE":"AFETR","APOAPSIS":"540.586","CENTER_NAME":"EARTH","OBJECT_NAME":"STARLINK-4706","ECCENTRICITY":"0.00012180","CLASSIFICATION_TYPE":"U","MEAN_MOTION_DOT":"0.00000421","INCLINATION":"53.2167","PERIOD":"95.438","GP_ID":"233989546","OBJECT_ID":"2022-111G"},{"MEAN_MOTION":"15.08842543","RA_OF_ASC_NODE":"76.7639","TLE_LINE2":"2 53780  53.2176  76.7639 0001028  87.4572 272.6538 15.08842543 42954","EPHEMERIS_TYPE":"0","SEMIMAJOR_AXIS":"6917.873","OBJECT_TYPE":"PAYLOAD","BSTAR":"0.00002243600000","SITE":"AFETR","CENTER_NAME":"EARTH","APOAPSIS":"540.449","OBJECT_NAME":"STARLINK-4678","ECCENTRICITY":"0.00010280","CLASSIFICATION_TYPE":"U","GP_ID":"233989296","OBJECT_ID":"2022-111H","MEAN_MOTION_DOT":"0.00000069","INCLINATION":"53.2176","PERIOD":"95.437","REF_FRAME":"TEME","TLE_LINE1":"1 53780U 22111H   23166.18840798  .00000069  00000-0  22436-4 0  9999","TIME_SYSTEM":"UTC","REV_AT_EPOCH":"4295","PERIAPSIS":"539.026","ARG_OF_PERICENTER":"87.4572","ELEMENT_SET_NO":"999","MEAN_ELEMENT_THEORY":"SGP4","MEAN_ANOMALY":"272.6538","FILE":"3933820","EPOCH":"2023-06-15T04:31:18.449472","LAUNCH_DATE":"2022-09-11","DECAY_DATE":null,"RCS_SIZE":"LARGE","MEAN_MOTION_DDOT":"0.0000000000000","NORAD_CAT_ID":"53780","COUNTRY_CODE":"US"},{"REF_FRAME":"TEME","TLE_LINE1":"1 53781U 22111J   23166.76614870 -.00001572  00000-0 -80718-4 0  9993","TIME_SYSTEM":"UTC","PERIAPSIS":"539.091","REV_AT_EPOCH":"4304","ELEMENT_SET_NO":"999","ARG_OF_PERICENTER":"77.7152","MEAN_ANOMALY":"282.3944","MEAN_ELEMENT_THEORY":"SGP4","EPOCH":"2023-06-15T18:23:15.247680","FILE":"3934071","DECAY_DATE":null,"LAUNCH_DATE":"2022-09-11","RCS_SIZE":"LARGE","MEAN_MOTION_DDOT":"0.0000000000000","NORAD_CAT_ID":"53781","COUNTRY_CODE":"US","RA_OF_ASC_NODE":"73.9703","MEAN_MOTION":"15.08844036","EPHEMERIS_TYPE":"0","TLE_LINE2":"2 53781  53.2174  73.9703 0000928  77.7152 282.3944 15.08844036 43047","SEMIMAJOR_AXIS":"6917.868","OBJECT_TYPE":"PAYLOAD","BSTAR":"-0.00008071800000","SITE":"AFETR","CENTER_NAME":"EARTH","APOAPSIS":"540.375","OBJECT_NAME":"STARLINK-4462","ECCENTRICITY":"0.00009280","CLASSIFICATION_TYPE":"U","GP_ID":"234022005","OBJECT_ID":"2022-111J","MEAN_MOTION_DOT":"-0.00001572","INCLINATION":"53.2174","PERIOD":"95.437"},{"COUNTRY_CODE":"US","NORAD_CAT_ID":"53782","MEAN_MOTION_DDOT":"0.0000000000000","RCS_SIZE":"LARGE","DECAY_DATE":null,"LAUNCH_DATE":"2022-09-11","EPOCH":"2023-06-15T18:33:51.928416","FILE":"3934071","MEAN_ANOMALY":"267.5108","MEAN_ELEMENT_THEORY":"SGP4","ARG_OF_PERICENTER":"92.5980","ELEMENT_SET_NO":"999","REV_AT_EPOCH":"4304","PERIAPSIS":"539.158","TIME_SYSTEM":"UTC","TLE_LINE1":"1 53782U 22111K   23166.77351769 -.00000117  00000-0  10726-4 0  9995","REF_FRAME":"TEME","PERIOD":"95.437","INCLINATION":"53.2170","MEAN_MOTION_DOT":"-0.00000117","OBJECT_ID":"2022-111K","GP_ID":"234021266","CLASSIFICATION_TYPE":"U","OBJECT_NAME":"STARLINK-4679","ECCENTRICITY":"0.00008420","APOAPSIS":"540.323","CENTER_NAME":"EARTH","SITE":"AFETR","OBJECT_TYPE":"PAYLOAD","BSTAR":"0.00001072600000","SEMIMAJOR_AXIS":"6917.875","EPHEMERIS_TYPE":"0","TLE_LINE2":"2 53782  53.2170  74.0147 0000842  92.5980 267.5108 15.08841692 43049","MEAN_MOTION":"15.08841692","RA_OF_ASC_NODE":"74.0147"},{"SITE":"AFETR","APOAPSIS":"540.585","CENTER_NAME":"EARTH","SEMIMAJOR_AXIS":"6917.885","BSTAR":"-0.00000286070000","OBJECT_TYPE":"PAYLOAD","MEAN_MOTION":"15.08838471","RA_OF_ASC_NODE":"73.9246","EPHEMERIS_TYPE":"0","TLE_LINE2":"2 53783  53.2167  73.9246 0001207  92.5628 267.5503 15.08838471 43049","MEAN_MOTION_DOT":"-0.00000333","INCLINATION":"53.2167","PERIOD":"95.438","GP_ID":"234021516","OBJECT_ID":"2022-111L","OBJECT_NAME":"STARLINK-4536","ECCENTRICITY":"0.00012070","CLASSIFICATION_TYPE":"U","ARG_OF_PERICENTER":"92.5628","ELEMENT_SET_NO":"999","REV_AT_EPOCH":"4304","PERIAPSIS":"538.915","TLE_LINE1":"1 53783U 22111L   23166.75877886 -.00000333  00000-0 -28607-5 0  9996","TIME_SYSTEM":"UTC","REF_FRAME":"TEME","COUNTRY_CODE":"US","MEAN_MOTION_DDOT":"0.0000000000000","RCS_SIZE":"LARGE","NORAD_CAT_ID":"53783","EPOCH":"2023-06-15T18:12:38.493504","FILE":"3934071","DECAY_DATE":null,"LAUNCH_DATE":"2022-09-11","MEAN_ELEMENT_THEORY":"SGP4","MEAN_ANOMALY":"267.5503"},{"TLE_LINE1":"1 53784U 22111M   23166.76983569 -.00000126  00000-0  10185-4 0  9994","TIME_SYSTEM":"UTC","REF_FRAME":"TEME","ELEMENT_SET_NO":"999","ARG_OF_PERICENTER":"92.8264","PERIAPSIS":"538.959","REV_AT_EPOCH":"4304","FILE":"3934071","EPOCH":"2023-06-15T18:28:33.803616","LAUNCH_DATE":"2022-09-11","DECAY_DATE":null,"MEAN_ELEMENT_THEORY":"SGP4","MEAN_ANOMALY":"267.2861","COUNTRY_CODE":"US","MEAN_MOTION_DDOT":"0.0000000000000","RCS_SIZE":"LARGE","NORAD_CAT_ID":"53784","SEMIMAJOR_AXIS":"6917.893","BSTAR":"0.00001018500000","OBJECT_TYPE":"PAYLOAD","RA_OF_ASC_NODE":"73.9949","MEAN_MOTION":"15.08835806","EPHEMERIS_TYPE":"0","TLE_LINE2":"2 53784  53.2169  73.9949 0001155  92.8264 267.2861 15.08835806 43046","SITE":"AFETR","CENTER_NAME":"EARTH","APOAPSIS":"540.557","ECCENTRICITY":"0.00011550","OBJECT_NAME":"STARLINK-4687","CLASSIFICATION_TYPE":"U","INCLINATION":"53.2169","MEAN_MOTION_DOT":"-0.00000126","PERIOD":"95.438","GP_ID":"234022265","OBJECT_ID":"2022-111M"}];
